COSMOS 2534 [GLONASS-M] 
1 44299U 19030A   26175.51251176  .00000105  00000+0  00000+0 0  9994
2 44299  64.3690 192.3697 0013462 274.9296  83.9383  2.13102365 55074
BEIDOU-3 IGSO-2         
1 44337U 19035A   26176.67713823 -.00000065  00000+0  00000+0 0  9998
2 44337  55.2491 158.7880 0039503 216.5820 261.6369  1.00264102 25758
NAVSTAR 78 (USA 293)    
1 44506U 19056A   26176.57429719 -.00000105  00000+0  00000+0 0  9991
2 44506  55.6328 330.8088 0062392 197.6754 125.8238  2.00570153 50233
BEIDOU-3 M24            
1 44542U 19061A   26176.83372840  .00000100  00000+0  00000+0 0  9992
2 44542  54.3964 182.4358 0008494 358.5395   1.4898  1.86229199 45956
BEIDOU-3 M23            
1 44543U 19061B   26174.55218917  .00000102  00000+0  00000+0 0  9996
2 44543  54.3954 182.4810 0005823 338.7823 203.1503  1.86227312 45913
EUTELSAT 5 WEST B       
1 44624U 19067A   26177.16565278 -.00000031  00000+0  00000+0 0  9999
2 44624   0.0622   4.1651 0003401  90.3658 234.3936  1.00271519 24527
BEIDOU-3 M22            
1 44793U 19078A   26173.98886353 -.00000107  00000+0  00000+0 0  9998
2 44793  53.9301 299.6233 0006249  51.2109 308.8401  1.86227077 44757
BEIDOU-3 M21            
1 44794U 19078B   26171.44396153 -.00000092  00000+0  00000+0 0  9995
2 44794  53.9054 299.6746 0003921  48.8810 311.1504  1.86227692 44717
COSMOS 2544 [GLONASS-M] 
1 44850U 19088A   26176.94531591 -.00000063  00000+0  00000+0 0  9994
2 44850  65.5707  73.4383 0012923 257.6247 102.2670  2.13102928 50901
BEIDOU-3 M19            
1 44864U 19090A   26175.25055926 -.00000095  00000+0  00000+0 0  9993
2 44864  56.5650  62.5564 0017586 297.6479 291.8664  1.86231520 44365
BEIDOU-3 M20            
1 44865U 19090B   26177.15791703 -.00000087  00000+0  00000+0 0  9996
2 44865  56.5685  62.5279 0015273 312.0808 205.8058  1.86231543 44385
BEIDOU-3 G2             
1 45344U 20017A   26177.18246619 -.00000133  00000+0  00000+0 0  9996
2 45344   2.8828  47.4963 0002515  38.0490 334.5435  1.00272020 23354
COSMOS 2545 [GLONASS-M] 
1 45358U 20018A   26173.38622942 -.00000076  00000+0  00000+0 0  9993
2 45358  64.3518 312.2361 0008551 229.7005 130.2180  2.13102345 48778
BEIDOU-3 G3             
1 45807U 20040A   26177.11715581 -.00000345  00000+0  00000+0 0  9993
2 45807   2.4697  67.4783 0002647 327.9839  31.4867  1.00274910 22152
NAVSTAR 79 (USA 304)    
1 45854U 20041A   26175.71392622 -.00000091  00000+0  00000+0 0  9995
2 45854  56.6750  28.6507 0064456 204.5351 155.8006  2.00558689 44196
GALAXY 30 (G-30)        
1 46114U 20056C   26177.22197208  .00000000  00000+0  00000+0 0  9991
2 46114   0.0265  13.9515 0002311  78.9158 136.3766  1.00270659 21386
COSMOS 2547 [GLONASS-K] 
1 46805U 20075A   26174.04506766  .00000094  00000+0  00000+0 0  9992
2 46805  64.5998 192.2800 0009389 239.8936 120.0622  2.13100075 44030
NAVSTAR 80 (USA 309)    
1 46826U 20078A   26176.74568558  .00000082  00000+0  00000+0 0  9991
2 46826  53.9789 210.4312 0073802 207.4080 154.5186  2.00565119 41681
NAVSTAR 81 (USA 319)    
1 48859U 21054A   26177.22745648 -.00000105  00000+0  00000+0 0  9992
2 48859  55.1700 332.0958 0025666 228.3477 307.7469  2.00568733 36933
QZS-1R (MICHIBIKI-1R)   
1 49336U 21096A   26176.62087218 -.00000314  00000+0  00000+0 0  9996
2 49336  37.4786  79.4571 0755538 271.9543 279.2646  1.00253341 17091
GSAT0223 (GALILEO 27)   
1 49809U 21116A   26174.44047914 -.00000098  00000+0  00000+0 0  9990
2 49809  57.1590 341.5051 0001600 183.5383 174.0725  1.70476308 28288
GSAT0224 (GALILEO 28)   
1 49810U 21116B   26176.61813146 -.00000097  00000+0  00000+0 0  9990
2 49810  57.1582 341.4455 0001373 160.1269 206.5880  1.70476480 28351
COSMOS 2557 [GLONASS-K] 
1 52984U 22075A   26177.02487990 -.00000087  00000+0  00000+0 0  9990
2 52984  64.2930 314.1731 0010253 273.5996  86.2722  2.13102178 30900
COSMOS 2559 [GLONASS-K] 
1 54031U 22130A   26174.96748302 -.00000084  00000+0  00000+0 0  9991
2 54031  64.2669 314.3295 0012699 178.7771 181.2176  2.13101763 28831
COSMOS 2564 [GLONASS-M] 
1 54377U 22161A   26177.15703373  .00000107  00000+0  00000+0 0  9996
2 54377  64.7425 192.4139 0012257 225.0447 134.9097  2.13102114 27823
NAVSTAR 82 (USA 343)    
1 55268U 23009A   26176.93387398  .00000044  00000+0  00000+0 0  9998
2 55268  55.1240 148.1750 0006265 317.1527  45.3707  2.00571086 25424
BEIDOU-3 G4             
1 56564U 23066A   26176.98051214 -.00000270  00000+0  00000+0 0  9993
2 56564   0.4767 333.7791 0004763 175.6226 257.7516  1.00271455 11486
NVS-01 (IRNSS-1J)       
1 56759U 23076A   26177.04971852 -.00000322  00000+0  00000+0 0  9995
2 56759   2.1451 243.9370 0002824  13.4701 164.2034  1.00275244 11206
COSMOS 2569 [GLONASS-K2]
1 57517U 23114A   26176.70007594 -.00000065  00000+0  00000+0 0  9990
2 57517  65.3068  72.3334 0010339 296.6774  63.2538  2.13103824 22447
BEIDOU-3 M28            
1 58654U 23207A   26176.89060950 -.00000090  00000+0  00000+0 0  9999
2 58654  55.7603  62.0093 0003000 352.4663   7.5702  1.86229896 17008
BEIDOU-3 M26            
1 58655U 23207B   26176.15114615 -.00000094  00000+0  00000+0 0  9991
2 58655  55.7619  62.0208 0002738 322.0424  37.9767  1.86229846 16977
